     2.11           N: GPS NAV DATA                         RINEX VERSION / TYPE
teqc  2018Dec12     gpsops              20220223 01:04:05UTCPGM / RUN BY / DATE
Linux 2.6.32-573.12.1.x86_64|x86_64|gcc -static|Linux 64|=+ COMMENT
CHPI                                    MARKER NAME         COMMENT
41609M003                               MARKER NUMBER       COMMENT
4164613.9484 -4162456.9866 -2445028.7316                    COMMENT
                                                            COMMENT
This data is provided as a public service by NASA/JPL.      COMMENT
No warranty is expressed or implied regarding suitability   COMMENT
for use.  For further information, contact:                 COMMENT
Dave Stowers, NASA/JPL m/s 238-600                          COMMENT
4800 Oak Grove Drive, Pasadena CA 91109 USA                 COMMENT
                                                            END OF HEADER
 5 22  2 22  6  0  0.0-7.228460162878D-05-1.364242052659D-12 0.000000000000D+00
    1.270000000000D+02-6.562500000000D-01 4.952706300097D-09 7.599402757285D-01
    2.309679985046D-07 5.857430631295D-03 6.752088665962D-06 5.153666599274D+03
    1.944000000000D+05 1.862645149231D-08-1.041253689196D+00 6.332993507385D-08
    9.594688531347D-01 2.500625000000D+02 1.008959358590D+00-8.398206961887D-09
    2.728685089258D-10 1.000000000000D+00 2.198000000000D+03 0.000000000000D+00
    2.800000000000D+00 0.000000000000D+00-1.117587089539D-08 1.270000000000D+02
    1.872180000000D+05 4.000000000000D+00
 2 22  2 22  6  0  0.0-6.512850522995D-04-6.821210263297D-13 0.000000000000D+00
    5.900000000000D+01-3.340625000000D+01 4.301607750658D-09-1.752820720727D+00
   -1.301988959312D-06 2.063920500223D-02 1.073442399502D-05 5.153701742172D+03
    1.944000000000D+05 8.940696716309D-08-2.125516207322D+00 5.140900611877D-07
    9.652060213908D-01 1.729375000000D+02-1.439695441185D+00-7.836040688262D-09
    1.517920370333D-10 1.000000000000D+00 2.198000000000D+03 0.000000000000D+00
    2.000000000000D+00 0.000000000000D+00-1.769512891769D-08 5.900000000000D+01
    1.872180000000D+05 4.000000000000D+00
14 22  2 22  6 44 32.0-8.671125397086D-05-4.320099833421D-12 0.000000000000D+00
    2.220000000000D+02 7.378125000000D+01 4.804842998140D-09-2.761469986035D+00
    3.965571522713D-06 1.448317081667D-03 4.479661583900D-06 5.153648984909D+03
    1.970720000000D+05 6.891787052155D-08 2.180739123623D+00-3.911554813385D-08
    9.534580884765D-01 2.906250000000D+02 3.020117173534D+00-8.411064640318D-09
    2.257236880119D-10 1.000000000000D+00 2.198000000000D+03 0.000000000000D+00
    2.000000000000D+00 0.000000000000D+00-7.450580596924D-09 2.220000000000D+02
    1.899180000000D+05 4.000000000000D+00
20 22  2 22  6  0  0.0 5.165967158973D-04-1.136868377216D-13 0.000000000000D+00
    1.400000000000D+01 5.468750000000D+00 5.314149927104D-09-8.881969457679D-01
    3.930181264877D-07 5.143199232407D-03 6.742775440216D-06 5.153749977112D+03
    1.944000000000D+05 7.636845111847D-08-1.155439719102D+00-2.793967723846D-08
    9.416458017959D-01 2.399062500000D+02 3.139485021661D+00-8.493210919183D-09
    4.439470636057D-10 1.000000000000D+00 2.198000000000D+03 0.000000000000D+00
    2.000000000000D+00 0.000000000000D+00-8.381903171539D-09 1.400000000000D+01
    1.920180000000D+05 4.000000000000D+00
29 22  2 22  6  0  0.0-4.832148551941D-04-4.661160346586D-12 0.000000000000D+00
    7.800000000000D+01-4.946875000000D+01 4.109814047394D-09 4.583616593686D-01
   -2.577900886536D-06 1.855716924183D-03 5.934387445450D-06 5.153749063492D+03
    1.944000000000D+05 5.774199962616D-08-3.020729776332D+00 1.303851604462D-08
    9.820695769455D-01 2.746875000000D+02 2.246024881392D+00-8.076050685642D-09
   -1.800074980348D-10 1.000000000000D+00 2.198000000000D+03 0.000000000000D+00
    2.000000000000D+00 0.000000000000D+00-1.024454832077D-08 7.800000000000D+01
    1.933560000000D+05 4.000000000000D+00
25 22  2 22  6  0  0.0 2.889605239034D-04 5.343281372916D-12 0.000000000000D+00
    2.400000000000D+01 7.093750000000D+01 4.604120351522D-09 2.810201770972D+00
    3.600493073463D-06 1.052854664158D-02 5.304813385010D-06 5.153708871841D+03
    1.944000000000D+05 7.450580596924D-09 2.135345543656D+00-1.247972249985D-07
    9.574645792943D-01 2.738437500000D+02 9.820356094506D-01-8.152839598494D-09
    1.885792836555D-10 1.000000000000D+00 2.198000000000D+03 0.000000000000D+00
    2.000000000000D+00 0.000000000000D+00 5.587935447693D-09 2.400000000000D+01
    1.934280000000D+05 4.000000000000D+00
24 22  2 22  8  0  0.0 2.731257118285D-04-2.387423592154D-12 0.000000000000D+00
    1.100000000000D+01 4.162500000000D+01 5.064139513166D-09-5.487336460789D-01
    2.155080437660D-06 1.235148403794D-02 1.115351915359D-05 5.153699945450D+03
    2.016000000000D+05 4.284083843231D-08 1.016152731594D+00 1.695007085800D-07
    9.344082749981D-01 1.493437500000D+02 8.080725246528D-01-8.444280309598D-09
   -2.446530479243D-10 1.000000000000D+00 2.198000000000D+03 0.000000000000D+00
    2.000000000000D+00 0.000000000000D+00 2.328306436539D-09 1.100000000000D+01
    1.944180000000D+05 4.000000000000D+00
 6 22  2 22  8  0  0.0 2.093664370477D-04 1.216449163621D-11 0.000000000000D+00
    8.600000000000D+01-2.868750000000D+01 3.846231639558D-09-5.263439686818D-01
   -1.771375536919D-06 2.693978836760D-03 1.053325831890D-05 5.153676691055D+03
    2.016000000000D+05-4.284083843231D-08-2.044435507379D+00-2.980232238770D-08
    9.862415867036D-01 1.883125000000D+02-9.478647294563D-01-7.764609141423D-09
    2.382242087088D-10 1.000000000000D+00 2.198000000000D+03 0.000000000000D+00
    2.000000000000D+00 0.000000000000D+00 3.725290298462D-09 8.600000000000D+01
    1.944180000000D+05 4.000000000000D+00
 2 22  2 22  8  0  0.0-6.512897089124D-04-6.821210263297D-13 0.000000000000D+00
    8.400000000000D+01-2.956250000000D+01 4.392682972878D-09-7.026379545026D-01
   -1.670792698860D-06 2.063943725079D-02 1.119635999203D-05 5.153702615738D+03
    2.016000000000D+05-2.849847078323D-07-2.125576049449D+00 7.450580596924D-08
    9.652054581673D-01 1.741250000000D+02-1.439714998937D+00-8.356776664720D-09
    2.946551307118D-10 1.000000000000D+00 2.198000000000D+03 0.000000000000D+00
    2.000000000000D+00 0.000000000000D+00-1.769512891769D-08 8.400000000000D+01
    1.944180000000D+05 4.000000000000D+00
11 22  2 22  8  0  0.0-8.126441389322D-05 1.136868377216D-11 0.000000000000D+00
    1.310000000000D+02-2.300000000000D+01 4.383396871789D-09 1.292414368555D+00
   -1.320615410805D-06 2.692638663575D-04 1.081638038158D-05 5.153780578613D+03
    2.016000000000D+05-1.303851604462D-08-1.992553184992D+00-5.587935447693D-09
    9.619589620691D-01 1.729687500000D+02 2.847666667033D+00-7.999618930524D-09
    2.557249376844D-10 1.000000000000D+00 2.198000000000D+03 0.000000000000D+00
    1.280000000000D+02 6.300000000000D+01-8.847564458847D-09 1.310000000000D+02
    1.944180000000D+05 4.000000000000D+00
12 22  2 22  8  0  0.0-1.747342757881D-04-5.684341886081D-12 0.000000000000D+00
    1.100000000000D+01 7.559375000000D+01 4.446970948475D-09-2.162989962814D+00
    3.905966877937D-06 8.704595034942D-03 4.541128873825D-06 5.153596475601D+03
    2.016000000000D+05 1.415610313416D-07 2.212115318065D+00-9.126961231232D-08
    9.700629459869D-01 2.959375000000D+02 1.247853044145D+00-8.121409717885D-09
    1.610781381224D-10 1.000000000000D+00 2.198000000000D+03 0.000000000000D+00
    2.000000000000D+00 0.000000000000D+00-1.257285475731D-08 1.100000000000D+01
    1.944180000000D+05 4.000000000000D+00
19 22  2 22  8  0  0.0 1.221802085638D-04 5.002220859751D-12 0.000000000000D+00
    7.900000000000D+01-5.356250000000D+01 4.092670476153D-09-2.544931912366D+00
   -2.551823854446D-06 8.989810245112D-03 6.143003702164D-06 5.153685811996D+03
    2.016000000000D+05-4.097819328308D-08-2.988954886974D+00 1.266598701477D-07
    9.788129662318D-01 2.629062500000D+02 2.009520272723D+00-7.903900657759D-09
   -1.357199389945D-10 1.000000000000D+00 2.198000000000D+03 0.000000000000D+00
    2.000000000000D+00 0.000000000000D+00-1.583248376846D-08 7.900000000000D+01
    1.944180000000D+05 4.000000000000D+00
15 22  2 22  8  0  0.0-8.194474503398D-05 2.955857780762D-12 0.000000000000D+00
    8.900000000000D+01-4.212500000000D+01 5.674164923173D-09 4.195931774886D-01
   -1.901760697365D-06 1.394458743744D-02 7.057562470436D-06 5.153736333847D+03
    2.016000000000D+05-1.601874828339D-07-7.878764899897D-02 1.192092895508D-07
    9.303497437955D-01 2.284375000000D+02 1.076745856318D+00-8.819295930504D-09
   -3.875161416028D-10 1.000000000000D+00 2.198000000000D+03 0.000000000000D+00
    2.000000000000D+00 0.000000000000D+00-1.071020960808D-08 8.900000000000D+01
    1.944180000000D+05 4.000000000000D+00
13 22  2 22  8  0  0.0 2.657519653440D-04 6.252776074689D-12 0.000000000000D+00
    3.500000000000D+01-3.840625000000D+01 4.579119310128D-09 8.532543135813D-01
   -1.845881342888D-06 5.812329240143D-03 8.847564458847D-06 5.153672292709D+03
    2.016000000000D+05-1.117587089539D-08 1.802914358048D-01 9.499490261078D-08
    9.689722864308D-01 2.133437500000D+02 9.553336065079D-01-8.098551622896D-09
   -4.407326439980D-10 1.000000000000D+00 2.198000000000D+03 0.000000000000D+00
    2.000000000000D+00 0.000000000000D+00-1.117587089539D-08 3.500000000000D+01
    1.944180000000D+05 4.000000000000D+00
28 22  2 22  8  0  0.0 3.951219841838D-04-8.299139153678D-12 0.000000000000D+00
    1.700000000000D+01 6.337500000000D+01 4.389111395536D-09 1.815031360324D+00
    3.119930624962D-06 1.680511690211D-02 4.118308424950D-06 5.153694341660D+03
    2.016000000000D+05 4.377216100693D-07 2.234189941425D+00-8.754432201385D-08
    9.691657646614D-01 3.007812500000D+02-1.286445187343D+00-8.024619971918D-09
    1.114332130692D-10 1.000000000000D+00 2.198000000000D+03 0.000000000000D+00
    2.000000000000D+00 6.300000000000D+01-1.117587089539D-08 1.700000000000D+01
    1.944180000000D+05 4.000000000000D+00
